start=new Date('2022-05-24T00:00:00.000Z').valueOf();
sats=[{"ELEMENT_SET_NO":"999","TLE_LINE2":"2 47643  53.0548 153.2814 0002269  46.5041 313.6137 15.06402443 71375","FILE":"3460905","MEAN_MOTION_DOT":"0.00001841","EPHEMERIS_TYPE":"0","MEAN_ELEMENT_THEORY":"SGP4","MEAN_MOTION_DDOT":"0.0000000000000","OBJECT_ID":"2021-012Z","REV_AT_EPOCH":"7137","COUNTRY_CODE":"US","DECAY_DATE":null,"RCS_SIZE":"LARGE","OBJECT_NAME":"STARLINK-2022","PERIOD":"95.592","PERIAPSIS":"545.635","REF_FRAME":"TEME","ARG_OF_PERICENTER":"46.5041","ECCENTRICITY":"0.00022690","MEAN_MOTION":"15.06402443","OBJECT_TYPE":"PAYLOAD","SEMIMAJOR_AXIS":"6925.341","BSTAR":"0.00014248000000","CLASSIFICATION_TYPE":"U","MEAN_ANOMALY":"313.6137","RA_OF_ASC_NODE":"153.2814","LAUNCH_DATE":"2021-02-16","CENTER_NAME":"EARTH","APOAPSIS":"548.777","INCLINATION":"53.0548","TIME_SYSTEM":"UTC","SITE":"AFETR","EPOCH":"2022-05-23T18:22:19.853184","GP_ID":"204365355","TLE_LINE1":"1 47643U 21012Z   22143.76550756  .00001841  00000-0  14248-3 0  9999","NORAD_CAT_ID":"47643"},{"CLASSIFICATION_TYPE":"U","MEAN_ANOMALY":"304.1715","CENTER_NAME":"EARTH","LAUNCH_DATE":"2021-02-16","RA_OF_ASC_NODE":"173.2187","BSTAR":"-0.00003387000000","SEMIMAJOR_AXIS":"6925.374","NORAD_CAT_ID":"47644","GP_ID":"204334675","TLE_LINE1":"1 47644U 21012AA  22143.77840852 -.00000786  00000-0 -33870-4 0  9992","EPOCH":"2022-05-23T18:40:54.496128","SITE":"AFETR","APOAPSIS":"548.497","TIME_SYSTEM":"UTC","INCLINATION":"53.0538","PERIOD":"95.593","OBJECT_NAME":"STARLINK-2026","RCS_SIZE":"LARGE","OBJECT_ID":"2021-012AA","MEAN_MOTION_DDOT":"0.0000000000000","DECAY_DATE":null,"COUNTRY_CODE":"US","REV_AT_EPOCH":"7058","ELEMENT_SET_NO":"999","MEAN_ELEMENT_THEORY":"SGP4","EPHEMERIS_TYPE":"0","FILE":"3460483","TLE_LINE2":"2 47644  53.0538 173.2187 0001817  55.9446 304.1715 15.06391715 70589","MEAN_MOTION_DOT":"-0.00000786","OBJECT_TYPE":"PAYLOAD","MEAN_MOTION":"15.06391715","ECCENTRICITY":"0.00018170","PERIAPSIS":"545.981","ARG_OF_PERICENTER":"55.9446","REF_FRAME":"TEME"},{"PERIAPSIS":"545.977","REF_FRAME":"TEME","ARG_OF_PERICENTER":"60.0607","ECCENTRICITY":"0.00017730","MEAN_MOTION":"15.06402957","OBJECT_TYPE":"PAYLOAD","ELEMENT_SET_NO":"999","TLE_LINE2":"2 47645  53.0541 143.5171 0001773  60.0607 300.0558 15.06402957 71485","FILE":"3460905","MEAN_MOTION_DOT":"0.00000716","EPHEMERIS_TYPE":"0","MEAN_ELEMENT_THEORY":"SGP4","OBJECT_ID":"2021-012AB","MEAN_MOTION_DDOT":"0.0000000000000","REV_AT_EPOCH":"7148","COUNTRY_CODE":"US","DECAY_DATE":null,"RCS_SIZE":"LARGE","OBJECT_NAME":"STARLINK-2027","PERIOD":"95.592","APOAPSIS":"548.432","INCLINATION":"53.0541","TIME_SYSTEM":"UTC","SITE":"AFETR","EPOCH":"2022-05-23T17:02:41.816544","GP_ID":"204364858","TLE_LINE1":"1 47645U 21012AB  22143.71020621  .00000716  00000-0  66940-4 0  9996","NORAD_CAT_ID":"47645","SEMIMAJOR_AXIS":"6925.339","BSTAR":"0.00006694000000","MEAN_ANOMALY":"300.0558","CLASSIFICATION_TYPE":"U","RA_OF_ASC_NODE":"143.5171","LAUNCH_DATE":"2021-02-16","CENTER_NAME":"EARTH"},{"PERIOD":"95.738","OBJECT_NAME":"STARLINK-2028","RCS_SIZE":"LARGE","OBJECT_ID":"2021-012AC","MEAN_MOTION_DDOT":"0.0000000000000","COUNTRY_CODE":"US","DECAY_DATE":null,"REV_AT_EPOCH":"7196","ELEMENT_SET_NO":"999","MEAN_ELEMENT_THEORY":"SGP4","EPHEMERIS_TYPE":"0","TLE_LINE2":"2 47646  53.0551 108.9143 0001748  34.8813 325.2289 15.04110108 71966","FILE":"3460905","MEAN_MOTION_DOT":"-0.00030541","OBJECT_TYPE":"PAYLOAD","MEAN_MOTION":"15.04110108","ECCENTRICITY":"0.00017480","PERIAPSIS":"553.029","ARG_OF_PERICENTER":"34.8813","REF_FRAME":"TEME","CLASSIFICATION_TYPE":"U","MEAN_ANOMALY":"325.2289","CENTER_NAME":"EARTH","RA_OF_ASC_NODE":"108.9143","LAUNCH_DATE":"2021-02-16","BSTAR":"-0.00217010000000","SEMIMAJOR_AXIS":"6932.376","NORAD_CAT_ID":"47646","GP_ID":"204365107","TLE_LINE1":"1 47646U 21012AC  22143.63549015 -.00030541  00000-0 -21701-2 0  9996","EPOCH":"2022-05-23T15:15:06.348960","SITE":"AFETR","APOAPSIS":"555.452","TIME_SYSTEM":"UTC","INCLINATION":"53.0551"},{"SITE":"AFETR","EPOCH":"2022-05-23T18:56:50.515584","APOAPSIS":"548.558","INCLINATION":"53.0543","TIME_SYSTEM":"UTC","NORAD_CAT_ID":"47647","TLE_LINE1":"1 47647U 21012AD  22143.78947356 -.00000486  00000-0 -13729-4 0  9991","GP_ID":"204365855","SEMIMAJOR_AXIS":"6925.383","CLASSIFICATION_TYPE":"U","MEAN_ANOMALY":"297.9918","LAUNCH_DATE":"2021-02-16","RA_OF_ASC_NODE":"173.1786","CENTER_NAME":"EARTH","BSTAR":"-0.00001372900000","ECCENTRICITY":"0.00018920","PERIAPSIS":"545.938","REF_FRAME":"TEME","ARG_OF_PERICENTER":"62.1262","OBJECT_TYPE":"PAYLOAD","MEAN_MOTION":"15.06388750","OBJECT_ID":"2021-012AD","MEAN_MOTION_DDOT":"0.0000000000000","REV_AT_EPOCH":"7110","DECAY_DATE":null,"COUNTRY_CODE":"US","ELEMENT_SET_NO":"999","FILE":"3460905","TLE_LINE2":"2 47647  53.0543 173.1786 0001892  62.1262 297.9918 15.06388750 71109","MEAN_MOTION_DOT":"-0.00000486","MEAN_ELEMENT_THEORY":"SGP4","EPHEMERIS_TYPE":"0","PERIOD":"95.593","RCS_SIZE":"LARGE","OBJECT_NAME":"STARLINK-2030"},{"OBJECT_TYPE":"PAYLOAD","MEAN_MOTION":"15.06391632","ECCENTRICITY":"0.00018750","ARG_OF_PERICENTER":"45.1766","REF_FRAME":"TEME","PERIAPSIS":"545.941","PERIOD":"95.593","RCS_SIZE":"MEDIUM","OBJECT_NAME":"STARLINK-2031","DECAY_DATE":null,"COUNTRY_CODE":"US","REV_AT_EPOCH":"7134","OBJECT_ID":"2021-012AE","MEAN_MOTION_DDOT":"0.0000000000000","EPHEMERIS_TYPE":"0","MEAN_ELEMENT_THEORY":"SGP4","FILE":"3460386","TLE_LINE2":"2 47648  53.0537 154.4071 0001875  45.1766 314.9375 15.06391632 71349","MEAN_MOTION_DOT":"-0.00001235","ELEMENT_SET_NO":"999","NORAD_CAT_ID":"47648","GP_ID":"204329993","TLE_LINE1":"1 47648U 21012AE  22143.51487247 -.00001235  00000-0 -64039-4 0  9994","EPOCH":"2022-05-23T12:21:24.981408","SITE":"AFETR","TIME_SYSTEM":"UTC","INCLINATION":"53.0537","APOAPSIS":"548.538","CENTER_NAME":"EARTH","LAUNCH_DATE":"2021-02-16","RA_OF_ASC_NODE":"154.4071","MEAN_ANOMALY":"314.9375","CLASSIFICATION_TYPE":"U","BSTAR":"-0.00006403900000","SEMIMAJOR_AXIS":"6925.374"},{"PERIAPSIS":"545.744","REF_FRAME":"TEME","ARG_OF_PERICENTER":"42.3600","ECCENTRICITY":"0.00021640","MEAN_MOTION":"15.06390345","OBJECT_TYPE":"PAYLOAD","ELEMENT_SET_NO":"999","MEAN_MOTION_DOT":"0.00000720","TLE_LINE2":"2 47649  53.0545 153.4974 0002164  42.3600 317.7556 15.06390345 71373","FILE":"3460905","MEAN_ELEMENT_THEORY":"SGP4","EPHEMERIS_TYPE":"0","OBJECT_ID":"2021-012AF","MEAN_MOTION_DDOT":"0.0000000000000","REV_AT_EPOCH":"7137","COUNTRY_CODE":"US","DECAY_DATE":null,"OBJECT_NAME":"STARLINK-2032","RCS_SIZE":"LARGE","PERIOD":"95.593","APOAPSIS":"548.742","INCLINATION":"53.0545","TIME_SYSTEM":"UTC","SITE":"AFETR","EPOCH":"2022-05-23T17:13:20.531136","TLE_LINE1":"1 47649U 21012AF  22143.71759874  .00000720  00000-0  67266-4 0  9996","GP_ID":"204364359","NORAD_CAT_ID":"47649","SEMIMAJOR_AXIS":"6925.378","BSTAR":"0.00006726600000","MEAN_ANOMALY":"317.7556","CLASSIFICATION_TYPE":"U","RA_OF_ASC_NODE":"153.4974","LAUNCH_DATE":"2021-02-16","CENTER_NAME":"EARTH"},{"BSTAR":"0.00007018800000","MEAN_ANOMALY":"311.3581","CLASSIFICATION_TYPE":"U","CENTER_NAME":"EARTH","LAUNCH_DATE":"2021-02-16","RA_OF_ASC_NODE":"154.4554","SEMIMAJOR_AXIS":"6925.360","GP_ID":"204328991","TLE_LINE1":"1 47650U 21012AG  22143.50381149  .00000764  00000-0  70188-4 0  9996","NORAD_CAT_ID":"47650","APOAPSIS":"548.618","TIME_SYSTEM":"UTC","INCLINATION":"53.0545","EPOCH":"2022-05-23T12:05:29.312736","SITE":"AFETR","OBJECT_NAME":"STARLINK-2033","RCS_SIZE":"LARGE","PERIOD":"95.592","ELEMENT_SET_NO":"999","MEAN_ELEMENT_THEORY":"SGP4","EPHEMERIS_TYPE":"0","FILE":"3460386","TLE_LINE2":"2 47650  53.0545 154.4554 0002011  48.7581 311.3581 15.06396154 71326","MEAN_MOTION_DOT":"0.00000764","MEAN_MOTION_DDOT":"0.0000000000000","OBJECT_ID":"2021-012AG","DECAY_DATE":null,"COUNTRY_CODE":"US","REV_AT_EPOCH":"7132","MEAN_MOTION":"15.06396154","OBJECT_TYPE":"PAYLOAD","PERIAPSIS":"545.833","ARG_OF_PERICENTER":"48.7581","REF_FRAME":"TEME","ECCENTRICITY":"0.00020110"},{"BSTAR":"0.00002421900000","CLASSIFICATION_TYPE":"U","MEAN_ANOMALY":"308.8185","CENTER_NAME":"EARTH","RA_OF_ASC_NODE":"173.1167","LAUNCH_DATE":"2021-02-16","SEMIMAJOR_AXIS":"6925.351","GP_ID":"204365356","TLE_LINE1":"1 47651U 21012AH  22143.80326685  .00000079  00000-0  24219-4 0  9997","NORAD_CAT_ID":"47651","APOAPSIS":"548.460","TIME_SYSTEM":"UTC","INCLINATION":"53.0546","EPOCH":"2022-05-23T19:16:42.255840","SITE":"AFETR","RCS_SIZE":"LARGE","OBJECT_NAME":"STARLINK-2035","PERIOD":"95.592","ELEMENT_SET_NO":"999","MEAN_ELEMENT_THEORY":"SGP4","EPHEMERIS_TYPE":"0","FILE":"3460905","TLE_LINE2":"2 47651  53.0546 173.1167 0001797  51.2965 308.8185 15.06399310 71105","MEAN_MOTION_DOT":"0.00000079","OBJECT_ID":"2021-012AH","MEAN_MOTION_DDOT":"0.0000000000000","COUNTRY_CODE":"US","DECAY_DATE":null,"REV_AT_EPOCH":"7110","MEAN_MOTION":"15.06399310","OBJECT_TYPE":"PAYLOAD","PERIAPSIS":"545.971","ARG_OF_PERICENTER":"51.2965","REF_FRAME":"TEME","ECCENTRICITY":"0.00017970"},{"CLASSIFICATION_TYPE":"U","MEAN_ANOMALY":"318.5956","RA_OF_ASC_NODE":"174.4806","LAUNCH_DATE":"2021-02-16","CENTER_NAME":"EARTH","BSTAR":"0.00015962000000","SEMIMAJOR_AXIS":"6925.339","NORAD_CAT_ID":"47652","TLE_LINE1":"1 47652U 21012AJ  22143.49827739  .00002097  00000-0  15962-3 0  9995","GP_ID":"204329493","SITE":"AFETR","EPOCH":"2022-05-23T11:57:31.166496","APOAPSIS":"548.619","INCLINATION":"53.0520","TIME_SYSTEM":"UTC","PERIOD":"95.592","RCS_SIZE":"LARGE","OBJECT_NAME":"STARLINK-2036","OBJECT_ID":"2021-012AJ","MEAN_MOTION_DDOT":"0.0000000000000","REV_AT_EPOCH":"7105","DECAY_DATE":null,"COUNTRY_CODE":"US","ELEMENT_SET_NO":"999","TLE_LINE2":"2 47652  53.0520 174.4806 0002043  41.5187 318.5956 15.06403141 71051","FILE":"3460386","MEAN_MOTION_DOT":"0.00002097","MEAN_ELEMENT_THEORY":"SGP4","EPHEMERIS_TYPE":"0","OBJECT_TYPE":"PAYLOAD","MEAN_MOTION":"15.06403141","ECCENTRICITY":"0.00020430","PERIAPSIS":"545.789","REF_FRAME":"TEME","ARG_OF_PERICENTER":"41.5187"}];
